SUOMI-100               
1 43804U 18099AY  26068.68271181  .00014037  00000+0  54773-3 0  9995
2 43804  97.4315 129.5602 0008969 269.9465  90.0745 15.25995383398238
STARLINK-30925          
1 58406U 23180E   26067.37738643  .00002099  00000+0  85748-4 0  9994
2 58406  43.0035  60.1034 0001347 257.0086 103.0615 15.27588974127302
